SL-16 R/B               
1 26070U 00006B   21246.61531846  .00000131  00000-0  91181-4 0  9999
2 26070  71.0034 321.9954 0016430 177.7098 182.4103 14.15466264115328
MTI                     
1 26102U 00014A   21246.71962150  .00015431  00000-0  17148-3 0  9990
2 26102  97.4585 157.5040 0007478  43.0803 317.1038 15.62965334193568
TITAN 4B R/B            
1 26474U 00047B   21246.50267084  .00000183  00000-0  26662-4 0  9999
2 26474  67.9934 295.9485 0051302  68.3454 292.3141 14.96208877145594
ENVISAT                 
1 27386U 02009A   21246.99442771  .00000038  00000-0  26020-4 0  9990
2 27386  98.1543 237.0596 0001317  84.8207 292.3449 14.38040026 22365
IDEFIX & ARIANE 42P R/B 
1 27422U 02021B   21246.58169853  .00000009  00000-0  20073-4 0  9997
2 27422  98.4080 196.8245 0012499   8.4140 351.7249 14.29329134  8473
AQUA                    
1 27424U 02022A   21247.08194770  .00000116  00000-0  35717-4 0  9992
2 27424  98.2124 187.2923 0002208  66.1375 358.2875 14.57107866 28529
CZ-4B R/B               
1 27432U 02024C   21246.55979436 -.00000014  00000-0  16710-4 0  9994
2 27432  99.0846 262.2630 0050565   7.5891 102.9347 14.14113212996277
MIDORI II (ADEOS-II)    
1 27597U 02056A   21246.59755997  .00000023  00000-0  27024-4 0  9998
2 27597  98.5683 190.3648 0001938 105.2467 254.8929 14.27513830975035
H-2A R/B                
1 27601U 02056E   21246.60331425  .00000092  00000-0  47944-4 0  9991
2 27601  98.1878 264.4841 0072882  37.7414  70.8891 14.32013636978119
CZ-4B R/B               
1 28059U 03049C   21246.36454937  .00000036  00000-0  20550-4 0  9991
2 28059  98.4935 174.1103 0049166 223.7599 135.9695 14.52666032947119
CZ-2C R/B               
1 28222U 04012C   21246.90026899  .00000848  00000-0  53727-4 0  9999
2 28222  97.7350 218.5260 0045377 314.6356  68.3227 15.11021498952979
SL-16 R/B               
1 28353U 04021B   21246.61625986  .00000033  00000-0  42229-4 0  9995
2 28353  70.9973  89.8798 0004663 358.2829   1.8277 14.14244504889798
CZ-4B R/B               
1 28415U 04035C   21246.57658955  .00000251  00000-0  20554-4 0  9995
2 28415  97.5590 287.7696 0049593 280.8371  78.7278 15.07200094930370
CZ-2C R/B               
1 28480U 04046B   21246.60797719  .00000084  00000-0  47082-4 0  9994
2 28480  98.0514 252.3087 0141713 352.7680 112.8796 14.25761278873562
ARIANE 5 R/B            
1 28499U 04049H   21246.58036483  .00000081  00000-0  17601-4 0  9999
2 28499  98.0758 356.2558 0090639 281.4262  88.5164 14.80147615901646
CZ-2D R/B               
1 28738U 05024B   21246.57709824  .00000729  00000-0  45369-4 0  9995
2 28738  97.3604 259.8426 0013506  91.5204 268.7574 15.12519502888375
SUZAKU (ASTRO-EII)      
1 28773U 05025A   21246.78868519  .00002096  00000-0  94458-4 0  9997
2 28773  31.3823  11.8000 0004596 352.2971   7.7605 15.18627280891364
ALOS (DAICHI)           
1 28931U 06002A   21246.87559850  .00000201  00000-0  48038-4 0  9993
2 28931  97.8943 218.2125 0001967  91.0542 269.0884 14.62875119832521
H-2A R/B                
1 28932U 06002B   21246.70337098  .00000703  00000-0  69945-4 0  9991
2 28932  98.3259 268.1687 0087049 312.0174 183.6197 14.92657144847250
AKARI (ASTRO-F)         
1 28939U 06005A   21246.67542714  .00004572  00000-0  11175-3 0  9999
2 28939  98.2395 279.5136 0084910 209.1558 150.4930 15.37759746848921
RESURS-DK 1             
1 29228U 06021A   21246.42942630  .00000180  00000-0  20768-4 0  9993
2 29228  69.9357 140.1440 0003640 184.9720 175.1406 15.02739405839259
GENESIS 1               
1 29252U 06029A   21246.51844852  .00000797  00000-0  47073-4 0  9997
2 29252  64.5217 291.7159 0050872 306.2571  53.3857 15.18820820835379
CZ-4B R/B               
1 29507U 06046C   21246.68635700  .00000997  00000-0  80868-4 0  9998
2 29507  97.7634 272.4522 0048589 110.6441 250.0002 15.01098066811843
CZ-2C R/B               
1 31114U 07010B   21246.93126174 -.00000057  00000-0 -84093-5 0  9999
2 31114  98.2329  75.1256 0060690  54.4841 306.1977 14.19372273745938
COSMO-SKYMED 1          
1 31598U 07023A   21247.22463114  .00000352  00000-0  50775-4 0  9995
2 31598  97.8926  70.0064 0001388  82.3784 277.7570 14.82154393770568
GENESIS 2               
1 31789U 07028A   21246.59627686  .00000540  00000-0  36524-4 0  9992
2 31789  64.4963 334.0196 0011080  15.7961 344.3505 15.17886223782348
COSMOS 2428             
1 31792U 07029A   21246.74035767  .00000321  00000-0  20010-3 0  9996
2 31792  70.9103  61.5095 0006520 136.3343 223.8294 14.12344314731363
SL-16 R/B               
1 31793U 07029B   21246.68198132  .00000003  00000-0  26329-4 0  9993
2 31793  70.9762  35.2882 0002346 276.6567  94.2632 14.14444237732314
KORONAS-FOTON           
1 33504U 09003A   21246.70176678  .00000566  00000-0  27604-4 0  9994
2 33504  82.4432 141.6498 0018704 180.1600 179.9630 15.16092710694500
H-2A R/B                
1 38341U 12025E   21246.59403516  .00000208  00000-0  31874-4 0  9994
2 38341  98.5280  77.4336 0054155 248.1870 111.3575 14.84264156503094
CUSAT 2 & FALCON 9 R/B  
1 39271U 13055G   21246.71769885  .00004491  00000-0  10507-3 0  9996
2 39271  80.9666 148.2046 0562794 271.7404  81.9444 14.54061106415000
CZ-2C R/B               
1 39364U 13059B   21246.58900177  .00001684  00000-0  62194-4 0  9990
2 39364  97.2059 304.6636 0044531 275.1470  84.4689 15.28222021436366
SL-4 R/B                
1 39679U 14021B   21246.63909782  .00001107  00000-0  70404-4 0  9999
2 39679  51.6147 209.7176 0170134  42.4502 318.9484 15.07100104405842
ALOS-2                  
1 39766U 14029A   21247.25027773 -.00000193  00000-0 -19026-4 0  9993
2 39766  97.9219 343.4840 0001525  85.7144 274.4252 14.79469306393312
CZ-2C R/B               
1 40306U 14071B   21246.61994333  .00007485  00000-0  13825-3 0  9995
2 40306  97.3762 205.8553 0013513 357.4762   2.6419 15.49286908382359
SL-27 R/B               
1 40354U 14084B   21246.83212963  .00001616  00000-0  39156-4 0  9994
2 40354  74.7379 190.1037 0036021 157.6250 202.6544 15.41317453376412
YAOGAN 29               
1 41038U 15069A   21247.00930093  .00000057  00000-0  14376-4 0  9994
2 41038  98.0428 241.1914 0000612  84.7227 275.4071 14.80520978311904
ASTRO-H (HITOMI)        
1 41337U 16012A   21246.68173978  .00000371  00000-0  23077-4 0  9996
2 41337  31.0052  79.0953 0012166 132.1872 227.9797 14.98883352304050
HXMT (HUIYAN)           
1 42758U 17034A   21247.08282831  .00000511  00000-0  45080-4 0  9997
2 42758  43.0170 121.5003 0009941 291.1217 220.9965 15.09287507232892
CZ-2C R/B               
1 43521U 18054D   21246.68138472  .00000700  00000-0  39641-4 0  9991
2 43521  35.1542 327.1874 0080979  68.6836 292.2499 15.11647678176242
AEOLUS                  
1 43600U 18066A   21246.75117790  .00047574  00000-0  18928-3 0  9994
2 43600  96.7153 252.3614 0005381 123.0127 237.1663 15.86523389175665
SAOCOM 1A               
1 43641U 18076A   21247.03052717  .00000417  00000-0  58920-4 0  9991
2 43641  97.8893  72.8320 0001523  73.6667 286.4732 14.82151689157305
SAOCOM 1B               
1 46265U 20059A   21247.06165919  .00000067  00000-0  15016-4 0  9992
2 46265  97.8905  71.9230 0001436  75.3404 284.7968 14.82155953 54705
2020-063G               
1 46395U 20063G   21246.57709547  .00040977  11742-4  12538-3 0  9995
2 46395  50.2001 270.5206 0006877  79.5466 280.6295 15.92680151 57714
SL-4 R/B                
1 47547U 21008B   21246.72651669  .00060286  57377-5  20164-3 0  9997
2 47547  67.1381 160.4057 0360302 252.1939 103.9607 15.32110193 32314
TIANHE                  
1 48274U 21035A   21245.49357639  .00013451  00000-0  15558-3 0  9997
2 48274  41.4686 171.3011 0001030 253.6211  96.0909 15.61614826 19782
